{
  "type": "FeatureCollection",
  "features": [
    {
      "type": "Feature",
      "properties": {
        "norad_id": 36453,
        "name": "COSMOS 2251 DEB",
        "group": "cosmos-2251-debris",
        "lat": -43.07977200830763,
        "lon": 113.86608448401242,
        "alt_km": 709.7411487737245,
        "timestamp": "2025-12-24T18:55:56.469228+00:00",
        "meta_object_name": "COSMOS 2251 DEB",
        "meta_object_id": "1993-036BBC",
        "meta_epoch": "2025-12-22T19:53:39.232320",
        "meta_mean_motion": 14.52671093,
        "meta_eccentricity": 0.00706202,
        "meta_inclination": 73.9241,
        "meta_ra_of_asc_node": 133.2304,
        "meta_arg_of_pericenter": 33.762,
        "meta_mean_anomaly": 116.2668,
        "meta_ephemeris_type": 0,
        "meta_classification_type": "U",
        "meta_norad_cat_id": 36453,
        "meta_element_set_no": 999,
        "meta_rev_at_epoch": 84614,
        "meta_bstar": 0.00082517813,
        "meta_mean_motion_dot": 3.465e-05,
        "meta_mean_motion_ddot": 0,
        "tle_line1": "1 36453U 93036BBC 25356.82892630  .00003465  00000+0  82518-3 0  9995",
        "tle_line2": "2 36453  73.9241 133.2304 0070620  33.7620 116.2668 14.52671093846142"
      },
      "geometry": {
        "type": "Point",
        "coordinates": [
          113.86608448401242,
          -43.07977200830763
        ]
      }
    },
    {
      "type": "Feature",
      "properties": {
        "norad_id": 36459,
        "name": "COSMOS 2251 DEB",
        "group": "cosmos-2251-debris",
        "lat": 0.3725232301244863,
        "lon": 157.92161880410742,
        "alt_km": 831.538952984426,
        "timestamp": "2025-12-24T18:55:56.469238+00:00",
        "meta_object_name": "COSMOS 2251 DEB",
        "meta_object_id": "1993-036BBJ",
        "meta_epoch": "2025-12-20T06:23:01.272480",
        "meta_mean_motion": 14.26454896,
        "meta_eccentricity": 0.0113312,
        "meta_inclination": 74.0464,
        "meta_ra_of_asc_node": 346.1968,
        "meta_arg_of_pericenter": 79.9168,
        "meta_mean_anomaly": 281.4741,
        "meta_ephemeris_type": 0,
        "meta_classification_type": "U",
        "meta_norad_cat_id": 36459,
        "meta_element_set_no": 999,
        "meta_rev_at_epoch": 7989,
        "meta_bstar": 0.00092616994,
        "meta_mean_motion_dot": 2.362e-05,
        "meta_mean_motion_ddot": 0,
        "tle_line1": "1 36459U 93036BBJ 25354.26598695  .00002362  00000+0  92617-3 0  9997",
        "tle_line2": "2 36459  74.0464 346.1968 0113312  79.9168 281.4741 14.26454896 79891"
      },
      "geometry": {
        "type": "Point",
        "coordinates": [
          157.92161880410742,
          0.3725232301244863
        ]
      }
    },
    {
      "type": "Feature",
      "properties": {
        "norad_id": 36470,
        "name": "COSMOS 2251 DEB",
        "group": "cosmos-2251-debris",
        "lat": 32.326356067352215,
        "lon": 38.7690541859018,
        "alt_km": 539.7184555309732,
        "timestamp": "2025-12-24T18:55:56.469248+00:00",
        "meta_object_name": "COSMOS 2251 DEB",
        "meta_object_id": "1993-036BBV",
        "meta_epoch": "2025-12-15T00:13:00.014016",
        "meta_mean_motion": 15.07582269,
        "meta_eccentricity": 0.00222568,
        "meta_inclination": 73.8449,
        "meta_ra_of_asc_node": 249.6845,
        "meta_arg_of_pericenter": 78.1368,
        "meta_mean_anomaly": 282.2316,
        "meta_ephemeris_type": 0,
        "meta_classification_type": "U",
        "meta_norad_cat_id": 36470,
        "meta_element_set_no": 999,
        "meta_rev_at_epoch": 66128,
        "meta_bstar": 0.0018721064,
        "meta_mean_motion_dot": 0.0002872,
        "meta_mean_motion_ddot": 0,
        "tle_line1": "1 36470U 93036BBV 25349.00902794  .00028720  00000+0  18721-2 0  9994",
        "tle_line2": "2 36470  73.8449 249.6845 0022256  78.1368 282.2316 15.07582269661287"
      },
      "geometry": {
        "type": "Point",
        "coordinates": [
          38.7690541859018,
          32.326356067352215
        ]
      }
    },
    {
      "type": "Feature",
      "properties": {
        "norad_id": 36528,
        "name": "COSMOS 2251 DEB",
        "group": "cosmos-2251-debris",
        "lat": 61.1776365162094,
        "lon": -88.13028209760193,
        "alt_km": 748.8524670078659,
        "timestamp": "2025-12-24T18:55:56.469258+00:00",
        "meta_object_name": "COSMOS 2251 DEB",
        "meta_object_id": "1993-036BCN",
        "meta_epoch": "2025-12-23T02:07:16.025088",
        "meta_mean_motion": 14.30700517,
        "meta_eccentricity": 0.00843039,
        "meta_inclination": 74.0164,
        "meta_ra_of_asc_node": 126.3587,
        "meta_arg_of_pericenter": 173.6908,
        "meta_mean_anomaly": 186.5326,
        "meta_ephemeris_type": 0,
        "meta_classification_type": "U",
        "meta_norad_cat_id": 36528,
        "meta_element_set_no": 999,
        "meta_rev_at_epoch": 64575,
        "meta_bstar": 0.0012053089,
        "meta_mean_motion_dot": 3.253e-05,
        "meta_mean_motion_ddot": 0,
        "tle_line1": "1 36528U 93036BCN 25357.08837992  .00003253  00000+0  12053-2 0  9998",
        "tle_line2": "2 36528  74.0164 126.3587 0084303 173.6908 186.5326 14.30700517645758"
      },
      "geometry": {
        "type": "Point",
        "coordinates": [
          -88.13028209760193,
          61.1776365162094
        ]
      }
    },
    {
      "type": "Feature",
      "properties": {
        "norad_id": 36533,
        "name": "COSMOS 2251 DEB",
        "group": "cosmos-2251-debris",
        "lat": 22.539844636018987,
        "lon": 99.0101512119346,
        "alt_km": 753.9228920159267,
        "timestamp": "2025-12-24T18:55:56.469267+00:00",
        "meta_object_name": "COSMOS 2251 DEB",
        "meta_object_id": "1993-036BCT",
        "meta_epoch": "2025-12-20T07:10:55.572384",
        "meta_mean_motion": 14.49841548,
        "meta_eccentricity": 0.00492519,
        "meta_inclination": 74.0124,
        "meta_ra_of_asc_node": 100.614,
        "meta_arg_of_pericenter": 248.4514,
        "meta_mean_anomaly": 111.1393,
        "meta_ephemeris_type": 0,
        "meta_classification_type": "U",
        "meta_norad_cat_id": 36533,
        "meta_element_set_no": 999,
        "meta_rev_at_epoch": 84594,
        "meta_bstar": 0.00033689925,
        "meta_mean_motion_dot": 1.292e-05,
        "meta_mean_motion_ddot": 0,
        "tle_line1": "1 36533U 93036BCT 25354.29925431  .00001292  00000+0  33690-3 0  9992",
        "tle_line2": "2 36533  74.0124 100.6140 0049251 248.4514 111.1393 14.49841548845948"
      },
      "geometry": {
        "type": "Point",
        "coordinates": [
          99.0101512119346,
          22.539844636018987
        ]
      }
    },
    {
      "type": "Feature",
      "properties": {
        "norad_id": 36539,
        "name": "COSMOS 2251 DEB",
        "group": "cosmos-2251-debris",
        "lat": -72.73387459932947,
        "lon": -34.99170699085863,
        "alt_km": 705.876629274424,
        "timestamp": "2025-12-24T18:55:56.469278+00:00",
        "meta_object_name": "COSMOS 2251 DEB",
        "meta_object_id": "1993-036BCZ",
        "meta_epoch": "2025-12-24T04:30:30.156192",
        "meta_mean_motion": 14.59367474,
        "meta_eccentricity": 0.00264471,
        "meta_inclination": 74.023,
        "meta_ra_of_asc_node": 33.3399,
        "meta_arg_of_pericenter": 176.3003,
        "meta_mean_anomaly": 183.8363,
        "meta_ephemeris_type": 0,
        "meta_classification_type": "U",
        "meta_norad_cat_id": 36539,
        "meta_element_set_no": 999,
        "meta_rev_at_epoch": 84114,
        "meta_bstar": 0.00063790282,
        "meta_mean_motion_dot": 3.005e-05,
        "meta_mean_motion_ddot": 0,
        "tle_line1": "1 36539U 93036BCZ 25358.18784903  .00003005  00000+0  63790-3 0  9995",
        "tle_line2": "2 36539  74.0230  33.3399 0026447 176.3003 183.8363 14.59367474841147"
      },
      "geometry": {
        "type": "Point",
        "coordinates": [
          -34.99170699085863,
          -72.73387459932947
        ]
      }
    },
    {
      "type": "Feature",
      "properties": {
        "norad_id": 36540,
        "name": "COSMOS 2251 DEB",
        "group": "cosmos-2251-debris",
        "lat": -22.58611962696852,
        "lon": -15.58902215261241,
        "alt_km": 693.2911317455937,
        "timestamp": "2025-12-24T18:55:56.469288+00:00",
        "meta_object_name": "COSMOS 2251 DEB",
        "meta_object_id": "1993-036BDA",
        "meta_epoch": "2025-12-23T20:36:08.955072",
        "meta_mean_motion": 14.58585087,
        "meta_eccentricity": 0.0014628,
        "meta_inclination": 74.0279,
        "meta_ra_of_asc_node": 159.3401,
        "meta_arg_of_pericenter": 229.2513,
        "meta_mean_anomaly": 130.7383,
        "meta_ephemeris_type": 0,
        "meta_classification_type": "U",
        "meta_norad_cat_id": 36540,
        "meta_element_set_no": 999,
        "meta_rev_at_epoch": 86172,
        "meta_bstar": 0.0012603,
        "meta_mean_motion_dot": 5.848e-05,
        "meta_mean_motion_ddot": 0,
        "tle_line1": "1 36540U 93036BDA 25357.85843698  .00005848  00000+0  12603-2 0  9990",
        "tle_line2": "2 36540  74.0279 159.3401 0014628 229.2513 130.7383 14.58585087861727"
      },
      "geometry": {
        "type": "Point",
        "coordinates": [
          -15.58902215261241,
          -22.58611962696852
        ]
      }
    }
  ]
}